FOX-1CLIFF (AO-95)      
1 43770U 18099N   23352.14580589  .00007150  00000+0  54231-3 0  9993
2 43770  97.5741  49.0880 0012499 260.5340  99.4473 15.02470773275208
RANGE-A                 
1 43772U 18099Q   23353.69242127  .00010228  00000+0  72274-3 0  9996
2 43772  97.5522  53.6895 0006470 154.9131 205.2411 15.05074235275531
RANGE-B                 
1 43773U 18099R   23354.13934611  .00004226  00000+0  34171-3 0  9998
2 43773  97.5374  48.1263 0014932 215.0435 144.9808 15.00219766275425
HIBER-2                 
1 43774U 18099S   23353.13166102  .00012860  00000+0  88346-3 0  9996
2 43774  97.5705  53.4829 0010204 205.8396 154.2323 15.06044571275479
SPAWAR-CAL-R            
1 43776U 18099U   23354.14503469  .00002446  00000+0  20975-3 0  9994
2 43776  97.5461  48.7190 0012996 216.1896 143.8449 14.98351828275365
SPAWAR-CAL-OR           
1 43778U 18099W   23354.11675119  .00007004  00000+0  53756-3 0  9993
2 43778  97.5118  48.1272 0017047 221.6397 138.3531 15.01971190275074
MOVE-II                 
1 43780U 18099Y   23353.61440070  .00014424  00000+0  92113-3 0  9990
2 43780  97.5481  54.0771 0006926 234.5068 125.5515 15.08744576275648
SNUSAT-2                
1 43782U 18099AA  23353.14498567  .00006810  00000+0  52295-3 0  9991
2 43782  97.5432  50.1495 0015379 186.1090 173.9949 15.01983460275373
KAZSTSAT                
1 43783U 18099AB  23354.12831622  .00001249  00000+0  11727-3 0  9990
2 43783  97.5562  46.7979 0006492 218.6054 141.4703 14.95666610275064
SNUGLITE                
1 43784U 18099AC  23353.68084628  .00007098  00000+0  53453-3 0  9997
2 43784  97.5246  50.1623 0004512 177.6464 182.4783 15.02792907275509
ORBWEAVER 2             
1 43785U 18099AD  23354.13344045  .00029089  00000+0  14626-2 0  9993
2 43785  97.5472  57.7811 0013927 175.0305 185.1069 15.17113866275547
ITASAT                  
1 43786U 18099AE  23353.15298901  .00005936  00000+0  46118-3 0  9991
2 43786  97.5435  50.6458 0017043 234.1331 125.8311 15.01572294275385
KAZSCISAT-1             
1 43787U 18099AF  23353.12069778  .00015956  00000+0  10429-2 0  9995
2 43787  97.5340  51.4391 0006752 208.2586 151.8277 15.07866754275591
EAGLET-I                
1 43790U 18099AJ  23354.13526134  .00004171  00000+0  33224-3 0  9991
2 43790  97.5590  52.0087 0017055 221.7588 138.2335 15.00788278275255
ESEO                    
1 43792U 18099AL  23354.11548791  .00003242  00000+0  27508-3 0  9990
2 43792  97.5471  49.7774 0011179 210.0044 150.0539 14.98558432275228
CSIM-FD                 
1 43793U 18099AM  23353.13820662  .00015165  00000+0  96248-3 0  9996
2 43793  97.5555  55.1625 0014029 212.2363 147.8009 15.08899040275426
HAWK-B                  
1 43794U 18099AN  23353.15615491  .00004504  00000+0  35717-3 0  9990
2 43794  97.5381  51.1795 0007933 184.1581 175.9579 15.00998004275463
ORBWEAVER 1             
1 43795U 18099AP  23353.18525503  .00036478  00000+0  17306-2 0  9996
2 43795  97.5545  59.4867 0002912 142.9490 217.1945 15.19170410275964
THEA                    
1 43796U 18099AQ  23354.17868955  .00007841  00000+0  56785-3 0  9995
2 43796  97.5738  54.7390 0013685 206.4960 153.5567 15.04175145275692
SKYSAT-C12              
1 43797U 18099AR  23354.12601417  .00010478  00000+0  36601-3 0  9994
2 43797  97.0507  47.1277 0005186  34.9728 325.1854 15.29729383282101
ASTROCAST 0.1           
1 43798U 18099AS  23353.16863283  .00012087  00000+0  81954-3 0  9998
2 43798  97.5633  54.2260 0011109 185.5428 174.5679 15.06542010275580
HAWK-C                  
1 43799U 18099AT  23353.15595880  .00004518  00000+0  35828-3 0  9992
2 43799  97.5379  51.0739 0007719 183.8184 176.2983 15.00998875276212
ICEYE-X2                
1 43800U 18099AU  23354.12734866  .00004859  00000+0  38029-3 0  9996
2 43800  97.5582  51.4155 0011924 175.3174 184.8164 15.01432556275513
SKYSAT-C13              
1 43802U 18099AW  23354.14817803  .00015445  00000+0  41716-3 0  9993
2 43802  97.0763  50.0059 0003679 261.6778  98.4051 15.37828226281767
JY1SAT (JO-97)          
1 43803U 18099AX  23353.16894383  .00008543  00000+0  62731-3 0  9994
2 43803  97.5496  51.1354 0010483 191.7961 168.3021 15.03655475275465
SUOMI-100               
1 43804U 18099AY  23353.14731528  .00007373  00000+0  54814-3 0  9997
2 43804  97.5555  50.9143 0016577 192.1908 167.8918 15.03171020275458
AL-FARABI 2             
1 43805U 18099AZ  23353.15873846  .00011012  00000+0  75991-3 0  9993
2 43805  97.5386  52.1723 0011674 184.9572 175.1541 15.05902408275557
EUCROPIS                
1 43807U 18099BB  23353.60365598  .00006016  00000+0  46082-3 0  9992
2 43807  97.5483  52.0838 0007370 188.7853 171.3244 15.02195573274916
POLAR SCOUT YUKON       
1 43808U 18099BC  23354.14264454  .00007193  00000+0  52439-3 0  9992
2 43808  97.5852  54.4313 0008988 253.4323 106.5916 15.03997808275334
CENTAURI-1              
1 43809U 18099BD  23353.70922219  .00005996  00000+0  46881-3 0  9997
2 43809  97.5589  51.0035 0017395 223.5365 136.4487 15.01318184275182
NEXTSAT-1               
1 43811U 18099BF  23354.15630387  .00003467  00000+0  28576-3 0  9994
2 43811  97.5477  50.5717 0013142 212.9504 147.0902 14.99627578275057
GLOBAL-2                
1 43812U 18099BG  23353.71852283  .00004955  00000+0  39918-3 0  9992
2 43812  97.5412  49.7306 0009538 215.3095 144.7498 15.00333376275032
BRIO                    
1 43813U 18099BH  23353.71138103  .00014526  00000+0  93730-3 0  9998
2 43813  97.5930  58.6228 0007443 185.8400 174.2743 15.08358075275418
FALCONSAT-6             
1 43815U 18099BK  23353.77769658  .00002771  00000+0  17406-3 0  9996
2 43815  97.5938  59.8764 0028452 203.4843 156.5089 15.09780547275518
SPACEBEE-7              
1 43816U 18099BL  23354.14140594  .00010458  00000+0  71401-3 0  9997
2 43816  97.5753  55.5544 0011075 180.4725 179.6494 15.06320800275266
SPACEBEE-5              
1 43817U 18099BM  23353.18988222  .00148920  00000+0  32238-2 0  9999
2 43817  97.5670  68.2172 0002232 187.0379 173.0837 15.43884575275934
SPACEBEE-6              
1 43818U 18099BN  23353.19007982  .00025270  00000+0  14486-2 0  9993
2 43818  97.5680  57.7801 0010272 193.7362 166.3591 15.12524131275462
EXCITE                  
1 43819U 18099BP  23353.17004214  .00003465  00000+0  29062-3 0  9996
2 43819  97.5441  48.5901 0011761 213.6576 146.3901 14.98963871274902
SEAHAWK-1               
1 43820U 18099BQ  23353.70952129  .00007488  00000+0  57276-3 0  9991
2 43820  97.5335  50.2851 0013014 213.5916 146.4485 15.02124202274912
GEO-KOMPSAT-2A          
1 43823U 18100A   23353.25612164 -.00000335  00000+0  00000+0 0  9993
2 43823   0.0556 127.5112 0000347 321.5823 218.9782  1.00269689 18495
GSAT-11                 
1 43824U 18100B   23354.10485635 -.00000068  00000+0  00000+0 0  9993
2 43824   0.0375 259.2783 0000771 222.8908  78.0291  1.00269551 18500
SAUDISAT 5A             
1 43831U 18102A   23354.16582966  .00004575  00000+0  25739-3 0  9990
2 43831  97.4340  59.1963 0014477  83.7783 276.5097 15.13662197277340
SAUDISAT 5B             
1 43833U 18102C   23354.14404871  .00005866  00000+0  32379-3 0  9990
2 43833  97.4381  60.7280 0015195  87.9059 272.3913 15.14220433277410
TOMSAT R3 (AEROCUBE 11B)
1 43849U 18104A   23354.14087700  .00700211  22051-3  14106-2 0  9994
2 43849  85.0030  34.2133 0001545 331.1564  28.9634 15.99708672279677
SHIELDS 1               
1 43850U 18104B   23353.60053438  .00010604  00000+0  33652-3 0  9991
2 43850  85.0258  45.1325 0013137  38.2851 321.9326 15.32437418278463
STF-1                   
1 43852U 18104D   23353.59737860  .00128843  00000+0  11281-2 0  9997
2 43852  85.0125  38.4923 0004680  34.0178 326.1388 15.68474421279163
CHOMPTT                 
1 43855U 18104G   23354.17760157  .00053161  00000+0  76240-3 0  9997
2 43855  85.0232  38.3012 0006201 347.7563  12.3545 15.55919880279322
CP11 (ISX)              
1 43856U 18104H   23353.56092192  .00056393  00000+0  88262-3 0  9994
2 43856  85.0202  41.7478 0007528  45.2997 314.8874 15.53500628278865
TOMSAT EAGLESCOUT       
1 43861U 18104N   23353.64804253  .00172794  00000+0  11875-2 0  9997
2 43861  85.0203  38.8573 0003025 358.1216   2.0042 15.74164264279367
GSAT-7A                 
1 43864U 18105A   23353.52931987  .00000035  00000+0  00000+0 0  9996
2 43864   0.0343  99.6501 0002492 161.5479  80.0195  1.00270328 18327
COSMOS 2533             
1 43867U 18107A   23353.60268007 -.00000030  00000+0  00000+0 0  9992
2 43867   0.0402  96.1630 0000930 193.6189  85.1321  1.00273056 18294
HONGYUN 1               
1 43871U 18108A   23354.14993561 -.00000026  00000+0  28823-4 0  9991
2 43871  99.8418  13.4818 0013057 110.3312 249.9226 13.50541194246230
NAVSTAR 77 (USA 289)    
1 43873U 18109A   23353.55793045  .00000062  00000+0  00000+0 0  9994
2 43873  55.2315 128.1673 0028007 190.9210 135.5088  2.00571884 36751
TJS-3                   
1 43874U 18110A   23353.75188394  .00000011  00000+0  00000+0 0  9998
2 43874   0.1880  87.8541 0005130 158.0364 285.8495  1.00272548 18351
KANOPUS-V 5             
1 43876U 18111A   23354.14805305  .00004885  00000+0  21104-3 0  9998
2 43876  97.4061 259.5770 0001879  81.5674 278.5776 15.22953524274269
KANOPUS-V 6             
1 43877U 18111B   23354.17417639  .00004651  00000+0  19982-3 0  9993
2 43877  97.4062 259.6480 0001837  82.1846 277.9599 15.23166151274261
ISAT                    
1 43879U 18111D   23353.72578244  .00010082  00000+0  69767-3 0  9996
2 43879  97.6325 255.8270 0011793 253.4226 106.5706 15.05827852270208
UWE-4                   
1 43880U 18111E   23353.29626326  .00011247  00000+0  78712-3 0  9999
2 43880  97.6214 255.8120 0016222 266.1197  93.8175 15.05324669272186
D-STAR ONE (SPARROW)    
1 43881U 18111F   23352.68904657  .00012481  00000+0  85398-3 0  9997
2 43881  97.6384 256.3946 0009689 308.0081  52.0271 15.06210863270121
